ISS OBJECT XW           
1 66910U 98067XW  26060.16094986  .00116820  00000+0  11065-2 0  9991
2 66910  51.6245 108.9438 0004729  40.5266 319.6081 15.66060895 13845
ISS OBJECT XX           
1 66911U 98067XX  26059.17644196  .00183930  00000+0  14258-2 0  9998
2 66911  51.6224 112.8607 0006724  29.6509 330.4869 15.70701974 13693
ISS OBJECT XY           
1 66912U 98067XY  26059.43700356  .00074749  00000+0  84275-3 0  9993
2 66912  51.6274 113.8728 0002597  40.6727 319.4460 15.61844218 13708
ISS OBJECT XZ           
1 67683U 98067XZ  26060.16061763  .00038400  00000+0  65168-3 0  9997
2 67683  51.6321 114.2060 0009654 157.7357 202.4053 15.51054892  3462
GXIBA-1                 
1 67684U 98067YA  26059.43705337  .00063733  00000+0  10102-2 0  9992
2 67684  51.6306 117.6242 0011076 146.1897 213.9801 15.52723154  3358
CORAL                   
1 67685U 98067YB  26059.38488540  .00039273  00000+0  66082-3 0  9992
2 67685  51.6317 118.0258 0011635 150.9862 209.1777 15.51261455  3347
ISS OBJECT YC           
1 67686U 98067YC  26060.15485560  .00050320  00000+0  83156-3 0  9996
2 67686  51.6315 114.1689 0007632 121.5200 238.6536 15.51697648  3463
LEOPARD                 
1 67687U 98067YD  26060.15912344  .00039724  00000+0  67111-3 0  9990
2 67687  51.6314 114.1963 0007666 125.9436 234.2266 15.51184896  3383
ISS OBJECT YE           
1 67688U 98067YE  26060.15619706  .00046194  00000+0  76912-3 0  9995
2 67688  51.6321 114.1774 0007596 122.8780 237.2942 15.51525698  3385
CREW DRAGON 12          
1 67796U 26031A   26059.86525056  .00009465  00000+0  18358-3 0  9997
2 67796  51.6324 115.9816 0008297 143.6601 216.4951 15.48367881554706
